SL-16 R/B               
1 22566U 93016B   26059.94528812  .00000330  00000+0  19387-3 0  9997
2 22566  71.0052 233.5474 0011184 326.4891  33.5523 14.15303221700936
COSMOS 2242             
1 22626U 93024A   26059.67627104  .00002007  00000+0  17405-3 0  9999
2 22626  82.5161 275.3397 0015876 341.0007  19.0621 14.96505915779042
SL-16 R/B               
1 22803U 93059B   26059.93657737  .00000192  00000+0  11868-3 0  9998
2 22803  70.9912  29.5837 0018885 228.7278 131.2220 14.17231307678297
ARIANE 40 R/B           
1 22830U 93061H   26059.76025624  .00000211  00000+0  93209-4 0  9998
2 22830  98.4937 128.8235 0009736 314.5434  45.4954 14.32855372692823
COSMOS 2278             
1 23087U 94023A   26059.82797365  .00000366  00000+0  21605-3 0  9998
2 23087  71.0536 193.6356 0007540  31.2671 328.8899 14.14373294643551
SL-16 R/B               
1 23088U 94023B   26059.52497338 -.00000009  00000+0  19884-4 0  9995
2 23088  70.9987  90.1355 0005473 294.4161  65.6390 14.15013402644792
SL-16 R/B               
1 23343U 94074B   26059.67254590  .00000533  00000+0  78115-4 0  9995
2 23343  97.7122  90.8551 0005227 245.4987 229.0130 14.79395584685919
SL-16 R/B               
1 23405U 94077B   26059.93413969 -.00000231  00000+0 -93528-4 0  9995
2 23405  70.9849  10.9072 0003557 223.3244 136.7599 14.15563172614996
ARIANE 40+ R/B          
1 23561U 95021B   26059.79200904  .00000305  00000+0  11115-3 0  9996
2 23561  98.4516 131.3945 0007251 160.2065 310.8929 14.39764792617966
SL-16 R/B               
1 23705U 95058B   26059.79936447 -.00000168  00000+0 -61508-4 0  9995
2 23705  71.0208 198.9183 0011073 141.5555 218.6359 14.15492891566593
SL-16 R/B               
1 24298U 96051B   26059.81759014  .00000071  00000+0  65300-4 0  9998
2 24298  70.7591 194.0161 0015880 161.0048 199.1668 14.12412950520398
ORBVIEW 2 (SEASTAR)     
1 24883U 97037A   26059.91421757  .00000337  00000+0  13347-3 0  9992
2 24883  98.8551 223.9943 0003214  89.7027 270.4526 14.35486793507219
